SL-14 R/B               
1 21423U 91042B   25351.91427670  .00000376  00000+0  44557-4 0  9994
2 21423  82.4931 296.8707 0017890 145.3636 214.8747 14.81743664840967
ERS-1                   
1 21574U 91050A   25351.88101303  .00000279  00000+0  10384-3 0  9990
2 21574  98.7902   3.0644 0033027  85.2628 275.2329 14.39368759803960
ARIANE 40 R/B           
1 21610U 91050F   25351.84899096  .00000290  00000+0  99455-4 0  9990
2 21610  98.2160  42.0951 0002473 343.4606  16.6503 14.42817570807196
INTERCOSMOS 25          
1 21819U 91086A   25351.83669716  .00002001  00000+0  39858-3 0  9995
2 21819  82.6065 359.4933 1486396 293.4089  51.7700 12.11745859486773
SL-8 R/B                
1 21876U 92008B   25351.91432053  .00000121  00000+0  10837-3 0  9991
2 21876  82.9267 328.5972 0034872   5.5143  52.2405 13.75960137698179
SL-8 R/B                
1 21938U 92020B   25351.92276572  .00000121  00000+0  10937-3 0  9998
2 21938  82.9300 214.4688 0029242 163.7005 207.6853 13.75528286689899
USA 81                  
1 21949U 92023A   25351.57491182  .00000176  00000+0  57965-4 0  9993
2 21949  85.0078 178.7875 0001225  71.7017 288.4309 14.32328639 83030
COSMOS 2219             
1 22219U 92076A   25351.81785701  .00000137  00000+0  96908-4 0  9999
2 22219  71.0572 189.2172 0019165 319.9704  40.0005 14.14063475706800
SL-16 R/B               
1 22220U 92076B   25351.45646750  .00000205  00000+0  12586-3 0  9996
2 22220  71.0005   1.5960 0014529 227.6136 239.6142 14.16841870710186
COSMOS 2221             
1 22236U 92080A   25351.50064270  .00001708  00000+0  15053-3 0  9996
2 22236  82.5038 357.7682 0016202 107.0129 253.2870 14.95778390768508
SL-16 R/B               
1 22285U 92093B   25351.90307594  .00000268  00000+0  16141-3 0  9996
2 22285  71.0201 175.9570 0002286  53.6475 306.4859 14.15433218701582
COSMOS 2228             
1 22286U 92094A   25351.90488727  .00001945  00000+0  16742-3 0  9996
2 22286  82.5179 315.5919 0016886 212.8148 147.2027 14.96753063763825
