CCSDS_OMM_VERS = 2.0
CREATION_DATE  = 
ORIGINATOR     = 

OBJECT_NAME    = SL-14 R/B
OBJECT_ID      = 1991-042B
CENTER_NAME    = EARTH
REF_FRAME      = TEME
TIME_SYSTEM    = UTC
MEAN_ELEMENT_THEORY = SGP/SGP4

EPOCH          = 2025-12-17T21:56:33.506880
MEAN_MOTION    = 14.81743664
ECCENTRICITY   = .001789
INCLINATION    = 82.4931
RA_OF_ASC_NODE = 296.8707
ARG_OF_PERICENTER = 145.3636
MEAN_ANOMALY   = 214.8747

EPHEMERIS_TYPE = 0
CLASSIFICATION_TYPE = U
NORAD_CAT_ID   = 21423
ELEMENT_SET_NO = 999
REV_AT_EPOCH   = 84096
BSTAR          = .44556981E-4
MEAN_MOTION_DOT = .376E-5
MEAN_MOTION_DDOT = 0

CCSDS_OMM_VERS = 2.0
CREATION_DATE  = 
ORIGINATOR     = 

OBJECT_NAME    = ERS-1
OBJECT_ID      = 1991-050A
CENTER_NAME    = EARTH
REF_FRAME      = TEME
TIME_SYSTEM    = UTC
MEAN_ELEMENT_THEORY = SGP/SGP4

EPOCH          = 2025-12-17T21:08:39.525792
MEAN_MOTION    = 14.39368759
ECCENTRICITY   = .00330278
INCLINATION    = 98.7902
RA_OF_ASC_NODE = 3.0644
ARG_OF_PERICENTER = 85.2628
MEAN_ANOMALY   = 275.2329

EPHEMERIS_TYPE = 0
CLASSIFICATION_TYPE = U
NORAD_CAT_ID   = 21574
ELEMENT_SET_NO = 999
REV_AT_EPOCH   = 80396
BSTAR          = .10384034E-3
MEAN_MOTION_DOT = .279E-5
MEAN_MOTION_DDOT = 0

CCSDS_OMM_VERS = 2.0
CREATION_DATE  = 
ORIGINATOR     = 

OBJECT_NAME    = ARIANE 40 R/B
OBJECT_ID      = 1991-050F
CENTER_NAME    = EARTH
REF_FRAME      = TEME
TIME_SYSTEM    = UTC
MEAN_ELEMENT_THEORY = SGP/SGP4

EPOCH          = 2025-12-17T20:22:32.818944
MEAN_MOTION    = 14.42817570
ECCENTRICITY   = .00024737
INCLINATION    = 98.2160
RA_OF_ASC_NODE = 42.0951
ARG_OF_PERICENTER = 343.4606
MEAN_ANOMALY   = 16.6503

EPHEMERIS_TYPE = 0
CLASSIFICATION_TYPE = U
NORAD_CAT_ID   = 21610
ELEMENT_SET_NO = 999
REV_AT_EPOCH   = 80719
BSTAR          = .99455409E-4
MEAN_MOTION_DOT = .29E-5
MEAN_MOTION_DDOT = 0

CCSDS_OMM_VERS = 2.0
CREATION_DATE  = 
ORIGINATOR     = 

OBJECT_NAME    = INTERCOSMOS 25
OBJECT_ID      = 1991-086A
CENTER_NAME    = EARTH
REF_FRAME      = TEME
TIME_SYSTEM    = UTC
MEAN_ELEMENT_THEORY = SGP/SGP4

EPOCH          = 2025-12-17T20:04:50.634624
MEAN_MOTION    = 12.11745859
ECCENTRICITY   = .14863967
INCLINATION    = 82.6065
RA_OF_ASC_NODE = 359.4933
ARG_OF_PERICENTER = 293.4089
MEAN_ANOMALY   = 51.7700

EPHEMERIS_TYPE = 0
CLASSIFICATION_TYPE = U
NORAD_CAT_ID   = 21819
ELEMENT_SET_NO = 999
REV_AT_EPOCH   = 48677
BSTAR          = .39857689E-3
MEAN_MOTION_DOT = .2001E-4
MEAN_MOTION_DDOT = 0

CCSDS_OMM_VERS = 2.0
CREATION_DATE  = 
ORIGINATOR     = 

OBJECT_NAME    = SL-8 R/B
OBJECT_ID      = 1992-008B
CENTER_NAME    = EARTH
REF_FRAME      = TEME
TIME_SYSTEM    = UTC
MEAN_ELEMENT_THEORY = SGP/SGP4

EPOCH          = 2025-12-17T21:56:37.293792
MEAN_MOTION    = 13.75960137
ECCENTRICITY   = .00348722
INCLINATION    = 82.9267
RA_OF_ASC_NODE = 328.5972
ARG_OF_PERICENTER = 5.5143
MEAN_ANOMALY   = 52.2405

EPHEMERIS_TYPE = 0
CLASSIFICATION_TYPE = U
NORAD_CAT_ID   = 21876
ELEMENT_SET_NO = 999
REV_AT_EPOCH   = 69817
BSTAR          = .10837007E-3
MEAN_MOTION_DOT = .121E-5
MEAN_MOTION_DDOT = 0

CCSDS_OMM_VERS = 2.0
CREATION_DATE  = 
ORIGINATOR     = 

OBJECT_NAME    = SL-8 R/B
OBJECT_ID      = 1992-020B
CENTER_NAME    = EARTH
REF_FRAME      = TEME
TIME_SYSTEM    = UTC
MEAN_ELEMENT_THEORY = SGP/SGP4

EPOCH          = 2025-12-17T22:08:46.958208
MEAN_MOTION    = 13.75528286
ECCENTRICITY   = .00292423
INCLINATION    = 82.9300
RA_OF_ASC_NODE = 214.4688
ARG_OF_PERICENTER = 163.7005
MEAN_ANOMALY   = 207.6853

EPHEMERIS_TYPE = 0
CLASSIFICATION_TYPE = U
NORAD_CAT_ID   = 21938
ELEMENT_SET_NO = 999
REV_AT_EPOCH   = 68989
BSTAR          = .10937319E-3
MEAN_MOTION_DOT = .121E-5
MEAN_MOTION_DDOT = 0

CCSDS_OMM_VERS = 2.0
CREATION_DATE  = 
ORIGINATOR     = 

OBJECT_NAME    = USA 81
OBJECT_ID      = 1992-023A
CENTER_NAME    = EARTH
REF_FRAME      = TEME
TIME_SYSTEM    = UTC
MEAN_ELEMENT_THEORY = SGP/SGP4

EPOCH          = 2025-12-17T13:47:52.381248
MEAN_MOTION    = 14.32328639
ECCENTRICITY   = .00012256
INCLINATION    = 85.0078
RA_OF_ASC_NODE = 178.7875
ARG_OF_PERICENTER = 71.7017
MEAN_ANOMALY   = 288.4309

EPHEMERIS_TYPE = 0
CLASSIFICATION_TYPE = U
NORAD_CAT_ID   = 21949
ELEMENT_SET_NO = 999
REV_AT_EPOCH   = 8303
BSTAR          = .57964699E-4
MEAN_MOTION_DOT = .176E-5
MEAN_MOTION_DDOT = 0

CCSDS_OMM_VERS = 2.0
CREATION_DATE  = 
ORIGINATOR     = 

OBJECT_NAME    = COSMOS 2219
OBJECT_ID      = 1992-076A
CENTER_NAME    = EARTH
REF_FRAME      = TEME
TIME_SYSTEM    = UTC
MEAN_ELEMENT_THEORY = SGP/SGP4

EPOCH          = 2025-12-17T19:37:42.845664
MEAN_MOTION    = 14.14063475
ECCENTRICITY   = .0019165
INCLINATION    = 71.0572
RA_OF_ASC_NODE = 189.2172
ARG_OF_PERICENTER = 319.9704
MEAN_ANOMALY   = 40.0005

EPHEMERIS_TYPE = 0
CLASSIFICATION_TYPE = U
NORAD_CAT_ID   = 22219
ELEMENT_SET_NO = 999
REV_AT_EPOCH   = 70680
BSTAR          = .96907633E-4
MEAN_MOTION_DOT = .137E-5
MEAN_MOTION_DDOT = 0

CCSDS_OMM_VERS = 2.0
CREATION_DATE  = 
ORIGINATOR     = 

OBJECT_NAME    = SL-16 R/B
OBJECT_ID      = 1992-076B
CENTER_NAME    = EARTH
REF_FRAME      = TEME
TIME_SYSTEM    = UTC
MEAN_ELEMENT_THEORY = SGP/SGP4

EPOCH          = 2025-12-17T10:57:18.792000
MEAN_MOTION    = 14.16841870
ECCENTRICITY   = .0014529
INCLINATION    = 71.0005
RA_OF_ASC_NODE = 1.5960
ARG_OF_PERICENTER = 227.6136
MEAN_ANOMALY   = 239.6142

EPHEMERIS_TYPE = 0
CLASSIFICATION_TYPE = U
NORAD_CAT_ID   = 22220
ELEMENT_SET_NO = 999
REV_AT_EPOCH   = 71018
BSTAR          = .1258573E-3
MEAN_MOTION_DOT = .205E-5
MEAN_MOTION_DDOT = 0

CCSDS_OMM_VERS = 2.0
CREATION_DATE  = 
ORIGINATOR     = 

OBJECT_NAME    = COSMOS 2221
OBJECT_ID      = 1992-080A
CENTER_NAME    = EARTH
REF_FRAME      = TEME
TIME_SYSTEM    = UTC
MEAN_ELEMENT_THEORY = SGP/SGP4

EPOCH          = 2025-12-17T12:00:55.529280
MEAN_MOTION    = 14.95778390
ECCENTRICITY   = .00162021
INCLINATION    = 82.5038
RA_OF_ASC_NODE = 357.7682
ARG_OF_PERICENTER = 107.0129
MEAN_ANOMALY   = 253.2870

EPHEMERIS_TYPE = 0
CLASSIFICATION_TYPE = U
NORAD_CAT_ID   = 22236
ELEMENT_SET_NO = 999
REV_AT_EPOCH   = 76850
BSTAR          = .15053384E-3
MEAN_MOTION_DOT = .1708E-4
MEAN_MOTION_DDOT = 0

CCSDS_OMM_VERS = 2.0
CREATION_DATE  = 
ORIGINATOR     = 

OBJECT_NAME    = SL-16 R/B
OBJECT_ID      = 1992-093B
CENTER_NAME    = EARTH
REF_FRAME      = TEME
TIME_SYSTEM    = UTC
MEAN_ELEMENT_THEORY = SGP/SGP4

EPOCH          = 2025-12-17T21:40:25.761216
MEAN_MOTION    = 14.15433218
ECCENTRICITY   = .00022868
INCLINATION    = 71.0201
RA_OF_ASC_NODE = 175.9570
ARG_OF_PERICENTER = 53.6475
MEAN_ANOMALY   = 306.4859

EPHEMERIS_TYPE = 0
CLASSIFICATION_TYPE = U
NORAD_CAT_ID   = 22285
ELEMENT_SET_NO = 999
REV_AT_EPOCH   = 70158
BSTAR          = .16141498E-3
MEAN_MOTION_DOT = .268E-5
MEAN_MOTION_DDOT = 0

CCSDS_OMM_VERS = 2.0
CREATION_DATE  = 
ORIGINATOR     = 

OBJECT_NAME    = COSMOS 2228
OBJECT_ID      = 1992-094A
CENTER_NAME    = EARTH
REF_FRAME      = TEME
TIME_SYSTEM    = UTC
MEAN_ELEMENT_THEORY = SGP/SGP4

EPOCH          = 2025-12-17T21:43:02.260128
MEAN_MOTION    = 14.96753063
ECCENTRICITY   = .0016886
INCLINATION    = 82.5179
RA_OF_ASC_NODE = 315.5919
ARG_OF_PERICENTER = 212.8148
MEAN_ANOMALY   = 147.2027

EPHEMERIS_TYPE = 0
CLASSIFICATION_TYPE = U
NORAD_CAT_ID   = 22286
ELEMENT_SET_NO = 999
REV_AT_EPOCH   = 76382
BSTAR          = .16741878E-3
MEAN_MOTION_DOT = .1945E-4
MEAN_MOTION_DDOT = 0

